{
  "norad_id": 64167,
  "name": "STARLINK-34309",
  "history": [
    {
      "epoch": "2026-03-28T17:09:14.333472Z",
      "apogee_km": 550.2867288605348,
      "perigee_km": 548.7280088775397,
      "latitude_deg": -1.4576598805485051e-05,
      "longitude_deg": 56.879954292607316,
      "height_km": 552.6391478794053,
      "semi_major_axis_km": 6927.644368869037,
      "eccentricity": 0.0001125,
      "inclination_deg": 97.6017,
      "raan_deg": 140.3209,
      "arg_perigee_deg": 95.029,
      "mean_anomaly_deg": 265.1065,
      "mean_motion_rev_day": 15.05651234
    },
    {
      "epoch": "2026-03-29T02:43:26.219424Z",
      "apogee_km": 550.2418453586251,
      "perigee_km": 548.7468625124466,
      "latitude_deg": 1.2975720579897194e-05,
      "longitude_deg": -86.66969885121448,
      "height_km": 552.6252877558464,
      "semi_major_axis_km": 6927.631353935536,
      "eccentricity": 0.0001079,
      "inclination_deg": 97.6016,
      "raan_deg": 140.7138,
      "arg_perigee_deg": 95.1728,
      "mean_anomaly_deg": 264.9622,
      "mean_motion_rev_day": 15.05655477
    },
    {
      "epoch": "2026-03-30T02:38:56.056992Z",
      "apogee_km": 550.2740441042561,
      "perigee_km": 548.6848488914293,
      "latitude_deg": 6.224307428286706e-05,
      "longitude_deg": -85.54409099512122,
      "height_km": 552.7066077090758,
      "semi_major_axis_km": 6927.616446497843,
      "eccentricity": 0.0001147,
      "inclination_deg": 97.6014,
      "raan_deg": 141.6963,
      "arg_perigee_deg": 101.887,
      "mean_anomaly_deg": 258.2486,
      "mean_motion_rev_day": 15.05660337
    }
  ]
}